OMNI-L2                 
1 52771U 22057AR  24340.49760559  .00003787  00000+0  49324-3 0  9995
2 52771  97.5244  68.1718 0006360   2.7969 357.3279 14.81134396137731
STEP CUBE LAB-II        
1 52897U 22065D   24341.08301232  .00002609  00000+0  53529-3 0  9992
2 52897  98.1441 119.0055 0008300 340.5666  19.5217 14.61505021129925
RANDEV                  
1 52898U 22065E   24341.14246704  .00002821  00000+0  57488-3 0  9996
2 52898  98.1433 119.2027 0007617 342.3322  17.7613 14.61754162129660
SNUGLITE-II             
1 52899U 22065F   24340.90746855  .00003210  00000+0  64665-3 0  9990
2 52899  98.1424 119.1355 0007171 343.4173  16.6793 14.62175619129342
MIMAN                   
1 52900U 22065G   24340.92812287  .00001903  00000+0  40133-3 0  9999
2 52900  98.1461 118.3764 0007172 339.9685  20.1233 14.60534209128913
STARLINK-4362           
1 53043U 22077A   24340.94119046 -.00000072  00000+0 -98020-6 0  9995
2 53043  97.6544 159.3165 0001611 229.3336 130.7748 15.01259587132097
LARES-2                 
1 53105U 22080A   24340.40122004  .00000031  00000+0  00000+0 0  9994
2 53105  70.1375 136.9808 0004854  99.0478 261.0604  6.38965258 55968
GREENCUBE               
1 53106U 22080B   24340.33076919 -.00000003  00000+0  00000+0 0  9990
2 53106  70.1317 133.0636 0008362  68.7653 291.3899  6.42557789 56265
ROBUSTA-1F (MTCUBE 2)   
1 53109U 22080E   24338.89359255 -.00000003  00000+0  00000+0 0  9998
2 53109  70.1161 133.1134 0008318  51.1258 309.0142  6.42584245 56060
STARLINK-4410           
1 53204U 22084R   24340.72790205  .00000445  00000+0  39264-4 0  9995
2 53204  97.6587  39.1008 0000403 232.8754 127.2434 15.01261812131114
COSMOS 2558             
1 53323U 22089A   24340.89680489  .00029181  00000+0  90705-3 0  9996
2 53323  97.2414  75.1646 0006123 211.6545 148.4330 15.33275106131562
TECMS                   
1 53346U 22090A   24340.70093902  .00025925  00000+0  11743-2 0  9997
2 53346  97.3810  51.4007 0004264 269.9243 208.7357 15.20840772129908
DONGPO 04               
1 53451U 22098H   24341.12658206  .00030059  00000+0  10732-2 0  9994
2 53451  97.5388  82.4863 0004352 224.4788 135.6103 15.28801445128682
DONGPO 02               
1 53452U 22098J   24341.16152724  .00027016  00000+0  10445-2 0  9993
2 53452  97.5260  80.7892 0005487 188.8669 171.2473 15.26186212128655
DONGPO 01               
1 53453U 22098K   24341.17828582  .00026682  00000+0  10442-2 0  9992
2 53453  97.5327  81.3580 0000775 186.6649 173.4579 15.25796897128656
STARLINK-4400           
1 53468U 22099D   24340.62267955  .00003538  00000+0  27987-3 0  9997
2 53468  97.6552  99.0090 0000767  78.7715 281.3596 15.01266799127105
STARLINK-4621           
1 53676U 22105AE  24340.63231354  .00000721  00000+0  60734-4 0  9990
2 53676  97.6561 219.0098 0001644  86.0883 274.0529 15.01261013124365
SHERPA-LTC2             
1 53754U 22107BG  24340.46939652  .00010528  00000+0  56557-3 0  9999
2 53754  53.2368  51.6476 0428779 112.6039 252.0876 14.61012380120617
CENTISPACE-1 S3         
1 53757U 22108A   24341.07580476  .00001557  00000+0  36059-3 0  9994
2 53757  53.5308 201.2250 0008054 305.8333  54.1893 14.60014062119967
CENTISPACE-1 S4         
1 53758U 22108B   24341.13944157  .00001518  00000+0  34935-3 0  9990
2 53758  53.5282 200.7003 0007323 289.0597  70.9584 14.60430116119978
BLUEWALKER-3            
1 53807U 22111AL  24340.67692341  .00014890  00000+0  50521-3 0  9998
2 53807  53.2327 120.9002 0006573 249.5391 110.4906 15.30738943124455
YUNHAI-1 03             
1 53877U 22115A   24341.16315934  .00000742  00000+0  28549-3 0  9990
2 53877  98.5302 336.0676 0000118 158.6240 201.4949 14.33244195115604
CENTISPACE-1 S5         
1 54020U 22126A   24341.11090751  .00003522  00000+0  75023-3 0  9993
2 54020  54.9993 283.2146 0010196 251.4298 108.5588 14.60986542115407
CENTISPACE-1 S6         
1 54021U 22126B   24341.10820307  .00002841  00000+0  61552-3 0  9996
2 54021  54.9995 283.2073 0012057 254.0668 105.8997 14.60740198115394
OTB-3-GAZELLE           
1 54023U 22127A   24340.90037686  .00000470  00000+0  15510-3 0  9995
2 54023  98.3555 331.5398 0014454  74.5597 285.7188 14.42335837113877
ASO-S                   
1 54029U 22129A   24341.17233927  .00000608  00000+0  16267-3 0  9992
2 54029  98.2712 343.5480 0014671  12.3075 347.8476 14.51647564114452
HJ-2E                   
1 54035U 22132A   24341.12808556  .00018196  00000+0  74985-3 0  9996
2 54035  97.3842 344.7481 0017339 106.9064 253.4076 15.24003151119530
COSMOS 2561             
1 54109U 22137A   24340.89129524  .00016486  00000+0  44525-3 0  9994
2 54109  96.9976  53.0377 0011221 248.6680 111.3368 15.37758619120214
GONETS-M 23             
1 54150U 22139A   24341.09090373  .00000023  00000+0  95462-4 0  9991
2 54150  82.5057 335.0892 0021445   2.7683 357.3512 12.42880355 96319
GONETS-M 24             
1 54151U 22139B   24341.14518696  .00000033  00000+0  16817-3 0  9998
2 54151  82.4974 334.4957 0016773  14.1098 346.0447 12.42882507 96321
GONETS-M 25             
1 54152U 22139C   24341.13105656  .00000035  00000+0  17822-3 0  9995
2 54152  82.5040 334.8917 0020481  11.7000 348.4552 12.42878728 96327
SKIF-D                  
1 54153U 22139D   24340.25260956  .00000025  00000+0  00000+0 0  9998
2 54153  89.9831  96.7864 0007307   3.7109 356.3420  5.00432428 36140
MATS                    
1 54227U 22147A   24341.03661871  .00005657  00000+0  46077-3 0  9991
2 54227  97.6727 336.7082 0011931 280.7440  79.2440 14.99845520113939
JILIN-1 GAOFEN 03D54    
1 54254U 22155D   24341.11270137  .00029850  00000+0  10987-2 0  9991
2 54254  97.5737  93.0750 0008762 203.8668 156.2165 15.27774171113834
EOS-6 (OCEANSAT-3)      
1 54361U 22158A   24341.19857684  .00001465  00000+0  41507-3 0  9994
2 54361  98.3548  75.9269 0001136 110.7871 249.3443 14.46951075107146
ASTROCAST-0304          
1 54367U 22158G   24341.12150058  .00034322  00000+0  74007-3 0  9993
2 54367  97.4418  86.5633 0009047 172.3339 187.8049 15.44459443113194
ASTROCAST-0302          
1 54369U 22158J   24341.09037135  .00038080  00000+0  82424-3 0  9998
2 54369  97.4450  86.8737 0007814 168.7703 191.3721 15.44336197113203
ASTROCAST-0301          
1 54370U 22158K   24341.14198415  .00031757  00000+0  68624-3 0  9995
2 54370  97.4495  87.1091 0004936 185.9371 174.1819 15.44442192113216
CAS-5A (FO-118)         
1 54684U 22167C   24341.15903673  .00119128  00000+0  17219-2 0  9996
2 54684  97.6150 132.8063 0008255 259.3601 100.6723 15.55483429110766
DONGPO 09               
1 54685U 22167D   24341.13488390  .00018317  00000+0  80599-3 0  9999
2 54685  97.6348 124.9055 0002069 256.6526 103.4479 15.21916375110204
DONGPO 08               
1 54686U 22167E   24341.11735988  .00017621  00000+0  80057-3 0  9992
2 54686  97.6292 124.1533 0009579 312.8570  47.1860 15.20789954110188
2022-167F               
1 54687U 22167F   24341.17392195  .00039533  00000+0  13958-2 0  9999
2 54687  97.6061 124.7193 0007387 274.2035  85.8360 15.29089129110284
DONGPO 10               
1 54689U 22167H   24341.15267778  .00018242  00000+0  82656-3 0  9993
2 54689  97.6376 124.9634 0009232 274.6146  85.4034 15.20877981110191
JILIN-1 GAOFEN 03D48    
1 54695U 22167P   24341.11298740  .00017674  00000+0  80516-3 0  9990
2 54695  97.6310 124.4252 0010023 276.1463  83.8630 15.20692236110198
STAR VIBE               
1 55009U 23001A   24341.16085560  .00015237  00000+0  60167-3 0  9990
2 55009  97.4001  36.5506 0007018 318.2101  41.8601 15.25592754106674
BRO-8                   
1 55011U 23001C   24341.13798606  .00011156  00000+0  47010-3 0  9990
2 55011  97.4070  36.6974 0008427 320.3027  39.7592 15.23470995106641
CONNECTA T1.2           
1 55012U 23001D   24341.12279365  .00016485  00000+0  59852-3 0  9993
2 55012  97.4075  38.8044 0007980 307.2372  52.8139 15.28354164106770
BIRKELAND               
1 55015U 23001G   24341.16411890  .00012315  00000+0  46155-3 0  9991
2 55015  97.4098  39.1564 0007051 305.2917  54.7662 15.27380656106801
ION SCV-008             
1 55051U 23001AU  24340.81140932  .00010850  00000+0  52217-3 0  9996
2 55051  97.5997  60.0433 0018849 165.1684 195.0107 15.18798041106296
ION SCV-007             
1 55060U 23001BD  24341.16257890  .00001425  00000+0  21139-3 0  9994
2 55060  97.9777  42.0521 0012076 342.6396  17.4399 14.76572300103874
TAUSAT-2                
1 55073U 23001BS  24340.88704882  .00094120  00000+0  14254-2 0  9997
2 55073  97.3961  46.1477 0007395 247.0941 112.9532 15.54303085107271
FLOCK 4Y-23             
1 55080U 23001BZ  24340.76007316  .00043356  00000+0  10302-2 0  9995
2 55080  97.4017  43.7045 0009556 277.0066  83.0093 15.41501144107102
HUYGENS                 
1 55093U 23001CN  24341.16423259  .00012642  00000+0  47348-3 0  9997
2 55093  97.4034  38.9825 0010733 278.2759  81.7262 15.27366786106824
BDSAT-2                 
1 55098U 23001CT  24340.72648306  .00146553  00000+0  16728-2 0  9991
2 55098  97.3985  47.4211 0007082 255.0032 105.0442 15.61695411107321
SHARJAHSAT-1            
1 55104U 23001CZ  24341.16841950  .00018064  00000+0  66921-3 0  9994
2 55104  97.4014  37.4697 0008166 315.7581  44.3005 15.27667662106729
2023-003A               
1 55133U 23003A   24341.18234058  .00035166  00000+0  96971-3 0  9995
2 55133  97.2022  50.1247 0005331 345.6578  14.4514 15.37014409105986
EOS-7                   
1 55562U 23019A   24341.05044496  .00334580  00000+0  11056-2 0  9991
2 55562  37.1703 200.4274 0008448 268.5701  91.4106 15.88566455103174
HORUS 1                 
1 55690U 23025A   24341.16232300  .00014906  00000+0  62545-3 0  9992
2 55690  97.4060  54.4014 0003439 156.5372 203.6022 15.23570672 99099
HORUS 2                 
1 55844U 23032A   24341.19331431  .00013617  00000+0  58184-3 0  9991
2 55844  97.4118  54.7720 0008350 212.4581 147.6143 15.22951177 96531
